[{"OBJECT_NAME":"ONEWEB-0614","OBJECT_ID":"2023-004S","EPOCH":"2026-03-13T07:50:03.126048","MEAN_MOTION":13.11417546,"ECCENTRICITY":0.00017264,"INCLINATION":87.8869,"RA_OF_ASC_NODE":40.1378,"ARG_OF_PERICENTER":71.156,"MEAN_ANOMALY":288.9755,"EPHEMERIS_TYPE":0,"CLASSIFICATION_TYPE":"U","NORAD_CAT_ID":55156,"ELEMENT_SET_NO":999,"REV_AT_EPOCH":15327,"BSTAR":-0.001084859,"MEAN_MOTION_DOT":-3.72e-6,"MEAN_MOTION_DDOT":0},{"OBJECT_NAME":"ONEWEB-0616","OBJECT_ID":"2023-004T","EPOCH":"2026-03-13T07:28:41.687904","MEAN_MOTION":13.17649095,"ECCENTRICITY":0.00019587,"INCLINATION":87.9163,"RA_OF_ASC_NODE":24.9043,"ARG_OF_PERICENTER":110.9434,"MEAN_ANOMALY":249.1907,"EPHEMERIS_TYPE":0,"CLASSIFICATION_TYPE":"U","NORAD_CAT_ID":55157,"ELEMENT_SET_NO":999,"REV_AT_EPOCH":15507,"BSTAR":0.00027665655,"MEAN_MOTION_DOT":1.2e-6,"MEAN_MOTION_DDOT":0},{"OBJECT_NAME":"ONEWEB-0617","OBJECT_ID":"2023-004U","EPOCH":"2026-03-13T07:32:59.382816","MEAN_MOTION":13.11412428,"ECCENTRICITY":0.00019589,"INCLINATION":87.8871,"RA_OF_ASC_NODE":40.1243,"ARG_OF_PERICENTER":70.4804,"MEAN_ANOMALY":289.6536,"EPHEMERIS_TYPE":0,"CLASSIFICATION_TYPE":"U","NORAD_CAT_ID":55158,"ELEMENT_SET_NO":999,"REV_AT_EPOCH":15329,"BSTAR":0.0018350799,"MEAN_MOTION_DOT":6.63e-6,"MEAN_MOTION_DDOT":0},{"OBJECT_NAME":"ONEWEB-0618","OBJECT_ID":"2023-004V","EPOCH":"2026-03-13T09:38:14.317440","MEAN_MOTION":15.12036578,"ECCENTRICITY":0.00104732,"INCLINATION":86.9081,"RA_OF_ASC_NODE":216.4705,"ARG_OF_PERICENTER":291.3957,"MEAN_ANOMALY":68.6164,"EPHEMERIS_TYPE":0,"CLASSIFICATION_TYPE":"U","NORAD_CAT_ID":55159,"ELEMENT_SET_NO":999,"REV_AT_EPOCH":16778,"BSTAR":0.00045969303,"MEAN_MOTION_DOT":7.938e-5,"MEAN_MOTION_DDOT":0},{"OBJECT_NAME":"ONEWEB-0619","OBJECT_ID":"2023-004W","EPOCH":"2026-03-13T06:25:31.253376","MEAN_MOTION":13.17649874,"ECCENTRICITY":0.00014026,"INCLINATION":87.9166,"RA_OF_ASC_NODE":24.8866,"ARG_OF_PERICENTER":80.5639,"MEAN_ANOMALY":279.5651,"EPHEMERIS_TYPE":0,"CLASSIFICATION_TYPE":"U","NORAD_CAT_ID":55160,"ELEMENT_SET_NO":999,"REV_AT_EPOCH":15496,"BSTAR":8.704267e-6,"MEAN_MOTION_DOT":1.6e-7,"MEAN_MOTION_DDOT":0},{"OBJECT_NAME":"ONEWEB-0620","OBJECT_ID":"2023-004X","EPOCH":"2026-03-13T07:25:38.891424","MEAN_MOTION":13.11414963,"ECCENTRICITY":0.00021093,"INCLINATION":87.8862,"RA_OF_ASC_NODE":40.1407,"ARG_OF_PERICENTER":78.5798,"MEAN_ANOMALY":281.5566,"EPHEMERIS_TYPE":0,"CLASSIFICATION_TYPE":"U","NORAD_CAT_ID":55161,"ELEMENT_SET_NO":999,"REV_AT_EPOCH":15326,"BSTAR":-0.0010292618,"MEAN_MOTION_DOT":-3.52e-6,"MEAN_MOTION_DDOT":0},{"OBJECT_NAME":"ONEWEB-0621","OBJECT_ID":"2023-004Y","EPOCH":"2026-03-13T08:04:42.662496","MEAN_MOTION":13.11419921,"ECCENTRICITY":0.00016669,"INCLINATION":87.8875,"RA_OF_ASC_NODE":40.1154,"ARG_OF_PERICENTER":76.3449,"MEAN_ANOMALY":283.7865,"EPHEMERIS_TYPE":0,"CLASSIFICATION_TYPE":"U","NORAD_CAT_ID":55162,"ELEMENT_SET_NO":999,"REV_AT_EPOCH":15324,"BSTAR":-5.566745e-5,"MEAN_MOTION_DOT":-7.0e-8,"MEAN_MOTION_DDOT":0},{"OBJECT_NAME":"ONEWEB-0622","OBJECT_ID":"2023-004Z","EPOCH":"2026-03-13T08:12:01.298016","MEAN_MOTION":13.11420077,"ECCENTRICITY":0.00020008,"INCLINATION":87.8874,"RA_OF_ASC_NODE":40.1165,"ARG_OF_PERICENTER":59.1763,"MEAN_ANOMALY":300.9562,"EPHEMERIS_TYPE":0,"CLASSIFICATION_TYPE":"U","NORAD_CAT_ID":55163,"ELEMENT_SET_NO":999,"REV_AT_EPOCH":15323,"BSTAR":0.00060886539,"MEAN_MOTION_DOT":2.28e-6,"MEAN_MOTION_DDOT":0},{"OBJECT_NAME":"ONEWEB-0623","OBJECT_ID":"2023-004AA","EPOCH":"2026-03-13T06:18:13.777344","MEAN_MOTION":13.17649799,"ECCENTRICITY":0.00014777,"INCLINATION":87.9157,"RA_OF_ASC_NODE":24.9289,"ARG_OF_PERICENTER":56.5942,"MEAN_ANOMALY":303.5331,"EPHEMERIS_TYPE":0,"CLASSIFICATION_TYPE":"U","NORAD_CAT_ID":55164,"ELEMENT_SET_NO":999,"REV_AT_EPOCH":15495,"BSTAR":-3.3194111e-5,"MEAN_MOTION_DOT":0,"MEAN_MOTION_DDOT":0},{"OBJECT_NAME":"ONEWEB-0624","OBJECT_ID":"2023-004AB","EPOCH":"2026-03-13T07:46:18.701184","MEAN_MOTION":13.1292381,"ECCENTRICITY":0.00016343,"INCLINATION":87.9004,"RA_OF_ASC_NODE":9.6305,"ARG_OF_PERICENTER":73.8795,"MEAN_ANOMALY":286.2514,"EPHEMERIS_TYPE":0,"CLASSIFICATION_TYPE":"U","NORAD_CAT_ID":55165,"ELEMENT_SET_NO":999,"REV_AT_EPOCH":15549,"BSTAR":-0.00054514225,"MEAN_MOTION_DOT":-1.85e-6,"MEAN_MOTION_DDOT":0},{"OBJECT_NAME":"ONEWEB-0625","OBJECT_ID":"2023-004AC","EPOCH":"2026-03-13T07:52:59.865024","MEAN_MOTION":13.1765028,"ECCENTRICITY":0.00017962,"INCLINATION":87.9158,"RA_OF_ASC_NODE":24.9096,"ARG_OF_PERICENTER":86.1639,"MEAN_ANOMALY":273.9698,"EPHEMERIS_TYPE":0,"CLASSIFICATION_TYPE":"U","NORAD_CAT_ID":55166,"ELEMENT_SET_NO":999,"REV_AT_EPOCH":15495,"BSTAR":0.00021966316,"MEAN_MOTION_DOT":9.8e-7,"MEAN_MOTION_DDOT":0},{"OBJECT_NAME":"ONEWEB-0626","OBJECT_ID":"2023-004AD","EPOCH":"2026-03-13T07:38:23.804448","MEAN_MOTION":13.1764769,"ECCENTRICITY":0.00023001,"INCLINATION":87.9156,"RA_OF_ASC_NODE":24.9119,"ARG_OF_PERICENTER":80.3957,"MEAN_ANOMALY":279.7434,"EPHEMERIS_TYPE":0,"CLASSIFICATION_TYPE":"U","NORAD_CAT_ID":55167,"ELEMENT_SET_NO":999,"REV_AT_EPOCH":15495,"BSTAR":8.5367331e-5,"MEAN_MOTION_DOT":4.6e-7,"MEAN_MOTION_DDOT":0},{"OBJECT_NAME":"ONEWEB-0627","OBJECT_ID":"2023-004AE","EPOCH":"2026-03-13T07:21:24.264576","MEAN_MOTION":13.17650165,"ECCENTRICITY":0.00015648,"INCLINATION":87.9155,"RA_OF_ASC_NODE":24.914,"ARG_OF_PERICENTER":65.5759,"MEAN_ANOMALY":294.5536,"EPHEMERIS_TYPE":0,"CLASSIFICATION_TYPE":"U","NORAD_CAT_ID":55168,"ELEMENT_SET_NO":999,"REV_AT_EPOCH":15495,"BSTAR":9.5822346e-5,"MEAN_MOTION_DOT":5.0e-7,"MEAN_MOTION_DDOT":0},{"OBJECT_NAME":"ONEWEB-0628","OBJECT_ID":"2023-004AF","EPOCH":"2026-03-13T06:28:45.466752","MEAN_MOTION":13.12443328,"ECCENTRICITY":0.0001324,"INCLINATION":87.9005,"RA_OF_ASC_NODE":9.6905,"ARG_OF_PERICENTER":58.5392,"MEAN_ANOMALY":301.5865,"EPHEMERIS_TYPE":0,"CLASSIFICATION_TYPE":"U","NORAD_CAT_ID":55169,"ELEMENT_SET_NO":999,"REV_AT_EPOCH":15545,"BSTAR":0.0012568808,"MEAN_MOTION_DOT":4.65e-6,"MEAN_MOTION_DDOT":0},{"OBJECT_NAME":"ONEWEB-0629","OBJECT_ID":"2023-004AG","EPOCH":"2026-03-13T06:46:09.120864","MEAN_MOTION":13.17648207,"ECCENTRICITY":0.00014933,"INCLINATION":87.9153,"RA_OF_ASC_NODE":24.9161,"ARG_OF_PERICENTER":83.5962,"MEAN_ANOMALY":276.534,"EPHEMERIS_TYPE":0,"CLASSIFICATION_TYPE":"U","NORAD_CAT_ID":55170,"ELEMENT_SET_NO":999,"REV_AT_EPOCH":15495,"BSTAR":4.451062e-6,"MEAN_MOTION_DOT":1.5e-7,"MEAN_MOTION_DDOT":0},{"OBJECT_NAME":"ONEWEB-0631","OBJECT_ID":"2023-004AH","EPOCH":"2026-03-13T06:27:32.571936","MEAN_MOTION":13.18686308,"ECCENTRICITY":0.00022348,"INCLINATION":87.9252,"RA_OF_ASC_NODE":354.4862,"ARG_OF_PERICENTER":70.8899,"MEAN_ANOMALY":289.2475,"EPHEMERIS_TYPE":0,"CLASSIFICATION_TYPE":"U","NORAD_CAT_ID":55171,"ELEMENT_SET_NO":999,"REV_AT_EPOCH":15703,"BSTAR":0.00023198933,"MEAN_MOTION_DOT":1.04e-6,"MEAN_MOTION_DDOT":0},{"OBJECT_NAME":"ONEWEB-0709","OBJECT_ID":"2023-004AJ","EPOCH":"2026-03-13T09:00:53.161056","MEAN_MOTION":13.1141387,"ECCENTRICITY":0.00027165,"INCLINATION":87.8861,"RA_OF_ASC_NODE":40.1311,"ARG_OF_PERICENTER":85.4353,"MEAN_ANOMALY":274.7085,"EPHEMERIS_TYPE":0,"CLASSIFICATION_TYPE":"U","NORAD_CAT_ID":55172,"ELEMENT_SET_NO":999,"REV_AT_EPOCH":15331,"BSTAR":0.00024629784,"MEAN_MOTION_DOT":1.0e-6,"MEAN_MOTION_DDOT":0}]
