ONEWEB-0614             
1 55156U 23004S   26072.32642507 -.00000372  00000+0 -10849-2 0  9994
2 55156  87.8869  40.1378 0001726  71.1560 288.9755 13.11417546153274
ONEWEB-0616             
1 55157U 23004T   26072.31159361  .00000120  00000+0  27666-3 0  9990
2 55157  87.9163  24.9043 0001958 110.9434 249.1907 13.17649095155071
ONEWEB-0617             
1 55158U 23004U   26072.31457619  .00000663  00000+0  18351-2 0  9990
2 55158  87.8871  40.1243 0001958  70.4804 289.6536 13.11412428153291
ONEWEB-0618             
1 55159U 23004V   26072.40155460  .00007938  00000+0  45969-3 0  9998
2 55159  86.9081 216.4705 0010473 291.3957  68.6164 15.12036578167783
ONEWEB-0619             
1 55160U 23004W   26072.26772284  .00000016  00000+0  87043-5 0  9994
2 55160  87.9166  24.8866 0001402  80.5639 279.5651 13.17649874154968
ONEWEB-0620             
1 55161U 23004X   26072.30947791 -.00000352  00000+0 -10293-2 0  9992
2 55161  87.8862  40.1407 0002109  78.5798 281.5566 13.11414963153264
ONEWEB-0621             
1 55162U 23004Y   26072.33660489 -.00000007  00000+0 -55667-4 0  9995
2 55162  87.8875  40.1154 0001666  76.3449 283.7865 13.11419921153247
ONEWEB-0622             
1 55163U 23004Z   26072.34168169  .00000228  00000+0  60887-3 0  9997
2 55163  87.8874  40.1165 0002000  59.1763 300.9562 13.11420077153239
ONEWEB-0623             
1 55164U 23004AA  26072.26265946  .00000000  00000+0 -33194-4 0  9991
2 55164  87.9157  24.9289 0001477  56.5942 303.5331 13.17649799154952
ONEWEB-0624             
1 55165U 23004AB  26072.32382756 -.00000185  00000+0 -54514-3 0  9991
2 55165  87.9004   9.6305 0001634  73.8795 286.2514 13.12923810155490
ONEWEB-0625             
1 55166U 23004AC  26072.32847066  .00000098  00000+0  21966-3 0  9998
2 55166  87.9158  24.9096 0001796  86.1639 273.9698 13.17650280154950
ONEWEB-0626             
1 55167U 23004AD  26072.31833107  .00000046  00000+0  85367-4 0  9998
2 55167  87.9156  24.9119 0002300  80.3957 279.7434 13.17647690154959
ONEWEB-0627             
1 55168U 23004AE  26072.30653084  .00000050  00000+0  95822-4 0  9994
2 55168  87.9155  24.9140 0001564  65.5759 294.5536 13.17650165154958
ONEWEB-0628             
1 55169U 23004AF  26072.26997068  .00000465  00000+0  12569-2 0  9998
2 55169  87.9005   9.6905 0001324  58.5392 301.5865 13.12443328155457
ONEWEB-0629             
1 55170U 23004AG  26072.28205001  .00000015  00000+0  44511-5 0  9997
2 55170  87.9153  24.9161 0001493  83.5962 276.5340 13.17648207154956
ONEWEB-0631             
1 55171U 23004AH  26072.26912699  .00000104  00000+0  23199-3 0  9990
2 55171  87.9252 354.4862 0002234  70.8899 289.2475 13.18686308157035
ONEWEB-0709             
1 55172U 23004AJ  26072.37561529  .00000100  00000+0  24630-3 0  9992
2 55172  87.8861  40.1311 0002716  85.4353 274.7085 13.11413870153319
